{"type": "FeatureCollection", "features": [{"type": "Feature", "geometry": {"type": "GeometryCollection", "geometries": [{"type": "LineString", "coordinates": [[80.26606683005072, 13.561126741406046], [80.26832119720154, 13.554720388284203]]}, {"type": "LineString", "coordinates": [[80.31609600532694, 13.219428786605924], [80.31120303447956, 13.222734758208485]]}, {"type": "Polygon", "coordinates": [[[80.26832119720154, 13.554720388284203], [80.26719095905223, 13.538227356213614], [80.30914713181937, 13.438056071461755], [80.31521021307535, 13.442265588542217], [80.26832119720154, 13.554720388284203]]]}, {"type": "Polygon", "coordinates": [[[80.33383003760774, 13.23470953208601], [80.34554898746757, 13.330581826204957], [80.33235934899086, 13.389590250270539], [80.32423924721635, 13.40188127215146], [80.30770814867688, 13.427556261903387], [80.27741698959451, 13.43525120392595], [80.2613806437057, 13.465275184147425], [80.21666478719028, 13.4830564154757], [80.1003570643404, 13.505200357301508], [80.07943724005762, 13.529360742539286], [80.06561277476433, 13.534760463510414], [80.03409573373966, 13.521800981518005], [80.00771334195667, 13.532372432667062], [79.9896774382068, 13.526760141903921], [79.9901733068195, 13.51009086316455], [80.0062331942341, 13.515062311364453], [80.0190887095919, 13.501660341482987], [80.0369796603269, 13.499350519447628], [80.03604124759809, 13.484479868779362], [80.00589755748409, 13.487771054440133], [79.9953765569031, 13.459450693905504], [79.96186067163592, 13.45127961806485], [79.96322633925912, 13.417910570337506], [79.95085141032564, 13.408120180749481], [79.93247986301242, 13.404371281003247], [79.93562314364077, 13.384849587357865], [79.95028685014462, 13.381971343929651], [79.94803617121268, 13.3672208567993], [79.93974299966663, 13.369100586927399], [79.9255065550569, 13.335940359220102], [79.91068265347243, 13.343700404053154], [79.8651962047573, 13.31072993597891], [79.8588562035766, 13.313740729619028], [79.85116579062723, 13.303429577643374], [79.82116939670587, 13.30282957353104], [79.80033321837983, 13.27689766575103], [79.75307632393033, 13.243584159811014], [79.78325655465069, 13.228161770841327], [79.78325655465069, 13.217919323235279], [79.75183103827125, 13.204779588687172], [79.74437710009583, 13.194911011344976], [79.72577513544347, 13.21844063055652], [79.70291378402266, 13.169202431923463], [79.67514871892931, 13.073817847776686], [79.58866560334783, 13.002983921702395], [79.53487700564341, 12.9428457006328], [79.53299811030632, 12.8957668292656], [79.53959285715068, 12.8996117707833], [79.56025184698116, 12.888029674912385], [79.62304386641367, 12.9047339328505], [79.64480795569405, 12.925567304678351], [79.66609933718958, 12.918877152506614], [79.67414992828512, 12.903599352195345], [79.73971045622248, 12.925567303064648], [79.76445618282304, 12.941099395010204], [79.7827660185977, 12.951956182447924], [79.81175337243513, 12.967233945282825], [79.85000000007813, 12.958333335788689], [79.87048003097625, 12.944091137635635], [79.87589059556767, 12.92569614858514], [79.91193270772563, 12.889710481351015], [79.9186228770017, 12.863067253171703], [79.92827931031067, 12.861791676272482], [79.93038157584247, 12.853599384498441], [79.95325687560172, 12.854788165747115], [79.95833334498424, 12.862499964462986], [79.96329411419434, 12.834127480654244], [79.98321936841893, 12.828008037670216], [79.99257239719891, 12.800637833984053], [80.01887715510657, 12.795266087603558], [80.03333332875545, 12.783333310606846], [80.03397095530933, 12.738405719585808], [80.04102223262412, 12.736595971654907], [80.03664908912103, 12.70918409653116], [80.02140059116711, 12.693877186940492], [80.03748609023884, 12.664584053386863], [80.02973392588278, 12.639456152279902], [80.04166662514386, 12.62499999402277], [80.05833336989755, 12.625000011141156], [80.05890063931531, 12.601956143528858], [80.07443272230564, 12.58554386038908], [80.075567301738, 12.568622804984905], [80.1019561919647, 12.533900627615063], [80.11998241642766, 12.528315932295227], [80.13554378294201, 12.5160993986692], [80.14943273797151, 12.506377156874226], [80.15000000347902, 12.47083334509275], [80.15802112742386, 12.475909938356892], [80.18111037714586, 12.567637947285968], [80.18541717996969, 12.577638634494534], [80.25500106973472, 12.784860648071552], [80.24828589974295, 12.802453974098087], [80.26488322925371, 12.965651264847986], [80.29826267174826, 13.124336183005948], [80.33383003760774, 13.23470953208601]], [[80.31388805306561, 13.230972607091347], [80.31722261421181, 13.226427472958344], [80.33383003760774, 13.23470953208601], [80.31388805306561, 13.230972607091347]], [[80.23784789144919, 12.80572539986374], [80.23913729086838, 12.800861211384406], [80.24828589974295, 12.802453974098087], [80.23784789144919, 12.80572539986374]], [[80.23197327818409, 12.785083597297364], [80.23792268293614, 12.784020415971806], [80.23913729086838, 12.800861211384406], [80.23197327818409, 12.785083597297364]], [[80.31120303447956, 13.222734758208485], [80.31277466145238, 13.211251064839471], [80.31609600532694, 13.219428786605924], [80.31722261421181, 13.226427472958344], [80.31120303447956, 13.222734758208485]], [[80.17794544020757, 12.60430534724563], [80.16513634264862, 12.604028926169152], [80.1619271257718, 12.584922605637324], [80.17224883732989, 12.582420372663115], [80.17794544020757, 12.60430534724563]]]}]}, "properties": {"bwd_score": 3.75035530922764, "bws_score": 4.94334622642122, "cfr_score": 1.88706279315, "drr_score": 4.02881750726778, "gtd_score": null, "pfaf_id": 453750, "rfr_score": 4.11639684329, "w_awr_def_tot_cat": 4, "w_awr_def_tot_score": 4.53943654890403, "site_id": "S1", "name": "Chennai plant (IN)", "lat": 13.0827, "lng": 80.2707}}, {"type": "Feature", "geometry": {"type": "Polygon", "coordinates": [[[77.68333331038305, 11.445833296231049], [77.67304385700865, 11.433900606692506], [77.6589005829927, 11.427210489742498], [77.65763140895493, 11.417603066888441], [77.625567331113, 11.385543790531385], [77.6147104777117, 11.354733947503844], [77.59240554070347, 11.340786902875102], [77.59640058586113, 11.324253360792792], [77.56723391095899, 11.289710465634322], [77.5579372994389, 11.25930105596355], [77.54166663623089, 11.245833355090918], [77.51424220595909, 11.254520005446224], [77.47742441193967, 11.282979981785667], [77.46285805241467, 11.289209854997397], [77.45245225203183, 11.30381178840812], [77.41007550512784, 11.304519995143114], [77.37168407970464, 11.319982435908527], [77.34539762672368, 11.280317190091912], [77.29288160760947, 11.283900604768638], [77.26912028310593, 11.274646662489241], [77.22157997661247, 11.279733945647855], [77.2132466560691, 11.274432702940603], [77.16742252411352, 11.282574335772239], [77.16591256623555, 11.267443513640007], [77.1186858814733, 11.271463532662825], [77.1063140763019, 11.282703109135035], [77.09166666580111, 11.283333366234716], [77.07863700925385, 11.247751702817865], [77.06613705840044, 11.234455025405506], [77.07047866044253, 11.218381943692123], [77.04804384365596, 11.200567300391134], [77.03838740911883, 11.199291517010044], [77.02708337056812, 11.20371261622462], [77.01054377981319, 11.192233943365315], [76.9893970896584, 11.191078770703172], [77.00106248434722, 11.157484375023452], [77.09751160207665, 11.043566955824382], [77.25758669308398, 10.94526604242134], [77.29804384191628, 10.94640060201159], [77.3102894744626, 10.950567316750533], [77.32292987566636, 10.946291797947126], [77.34929167789802, 10.967554040909675], [77.35501742510324, 10.986649213588663], [77.38750000821732, 11.004166697299265], [77.42916670292969, 11.004166658867614], [77.44092003224607, 10.991099400135317], [77.51075779800804, 11.016313345100858], [77.51911755589555, 11.007979998255982], [77.54999998216488, 11.012499990871907], [77.55659115736054, 11.020479977255132], [77.57328696397235, 11.012146640065566], [77.59999995745005, 11.012500001266515], [77.62695618101567, 10.979733971730434], [77.72083333874022, 10.970833323755686], [77.7342207377151, 10.954874983272003], [77.75612286104354, 10.942233929798956], [77.84166671061189, 10.920833358366467], [77.88684524746022, 10.942639535173518], [77.8967207525333, 10.961791643474214], [77.95833330464298, 10.979166663894542], [77.98924218330157, 11.00798001771444], [78.03320243992826, 11.008486377971122], [78.0838038336724, 11.054958884872727], [78.1368961206154, 11.271401759711395], [78.09794996745055, 11.465061730901153], [78.03439969406062, 11.612746875008144], [77.9496466922787, 11.597575535350643], [77.94526608289864, 11.543622813589922], [77.92144077322588, 11.51992004161841], [77.92083332638889, 11.504166689860163], [77.87916665567329, 11.495833335662823], [77.82425333158781, 11.513067300748466], [77.80242449524177, 11.507980033138548], [77.79411691503596, 11.50868666378655], [77.78159113126819, 11.496186694802427], [77.74251744983793, 11.490815751703865], [77.73658041218873, 11.479870922719375], [77.71758623938233, 11.47025041047353], [77.69910044941629, 11.442327854040819], [77.68333331038305, 11.445833296231049]]]}, "properties": {"bwd_score": 1.17859054836278, "bws_score": 2.06684015463216, "cfr_score": 0, "drr_score": 4.05509254818893, "gtd_score": null, "pfaf_id": 453803, "rfr_score": 1.15688822434, "w_awr_def_tot_cat": 3, "w_awr_def_tot_score": 3.88394087449181, "site_id": "S2", "name": "Tiruppur textile (IN)", "lat": 11.1085, "lng": 77.3411}}, {"type": "Feature", "geometry": {"type": "GeometryCollection", "geometries": [{"type": "LineString", "coordinates": [[-119.76723394539128, 36.835289492448105], [-119.76608513638728, 36.839729868619074]]}, {"type": "Polygon", "coordinates": [[[-120.3542743621687, 36.77945215384675], [-120.24015109263608, 36.670389221896876], [-120.04319841758557, 36.57760214505524], [-119.7968231800838, 36.53783852713902], [-119.65301402691742, 36.53783860885803], [-119.38262952239803, 36.58396183369992], [-119.46475634975825, 36.65608721876498], [-119.76723394539128, 36.835289492448105], [-119.77589958116731, 36.82149458598094], [-119.80416668634076, 36.81249999430227], [-119.86424225842659, 36.81285333709676], [-119.88660036496108, 36.81183877390409], [-119.89258629277201, 36.80070427142807], [-119.96492442292032, 36.78714667577621], [-119.97291599843724, 36.77918054978451], [-120.05242445944144, 36.78298000011627], [-120.08112288399428, 36.76723392270178], [-120.12304382917402, 36.761932706906876], [-120.15221053167615, 36.741099388537215], [-120.18749996280323, 36.74166664132477], [-120.23507558648143, 36.72535333294324], [-120.28137713217914, 36.73390061536722], [-120.29929568426626, 36.74675290698676], [-120.30070836826833, 36.75744591884289], [-120.3313771746239, 36.775567290029784], [-120.3542743621687, 36.77945215384675]]]}, {"type": "Polygon", "coordinates": [[[-120.63085032959233, 36.31634526221695], [-120.50777519368152, 36.20277793824288], [-120.43143773551958, 36.10565807658383], [-120.43955344987668, 36.043848955074125], [-120.52079537744069, 36.02070101797376], [-120.4925173999031, 36.015815747089036], [-120.43505043831307, 35.97047998322306], [-120.40416667569737, 35.975000000750015], [-120.36751368641399, 35.96598087776709], [-120.35753921693198, 35.94662747669657], [-120.33750000677176, 35.93750000604106], [-120.27173293429445, 35.942327850155415], [-120.26961840737576, 35.950567310384564], [-120.24778951583767, 35.94943271774166], [-120.23432139297964, 35.936932730018334], [-120.22574665099783, 35.94223398833651], [-120.1999999739222, 35.93333337803628], [-120.20415276136193, 35.93958400781408], [-120.19640058060882, 35.95637718137314], [-120.18528949003753, 36.00473393819852], [-120.16108532490546, 36.017029655184466], [-120.25768600365195, 36.16676373836], [-120.5335223334653, 36.48482475540808], [-120.62757347776437, 36.57826121707826], [-120.6416667063555, 36.55833333028697], [-120.64201996914025, 36.53924219153724], [-120.65798000530461, 36.51424218484177], [-120.65035334811331, 36.46424217448214], [-120.65327927302307, 36.45487498657492], [-120.61250002172531, 36.441666670928974], [-120.61719630641241, 36.425940607382444], [-120.608691388068, 36.41004300637748], [-120.62535331222401, 36.39754778215919], [-120.62118665481714, 36.38507557497834], [-120.63749997381932, 36.366666710050154], [-120.62561743786821, 36.360493622704716], [-120.62418751874961, 36.35066797376762], [-120.60058291072663, 36.34491375188615], [-120.59223395183282, 36.335543827885814], [-120.63085032959233, 36.31634526221695]]]}]}, "properties": {"bwd_score": 5, "bws_score": 5, "cfr_score": 0, "drr_score": 1.8012393182642, "gtd_score": 3.2781175, "pfaf_id": 774429, "rfr_score": 0.17360936472, "w_awr_def_tot_cat": 3, "w_awr_def_tot_score": 3.85731673675176, "site_id": "S3", "name": "Fresno plant (US-CA)", "lat": 36.7378, "lng": -119.7871}}, {"type": "Feature", "geometry": {"type": "Polygon", "coordinates": [[[9.916312211516118, 53.44256217004043], [9.90656662214583, 53.41579055239457], [9.942015616995311, 53.421051022242516], [9.949212107405607, 53.43095013450727], [9.982523941720551, 53.415317559970816], [10.029153779130976, 53.435110138157484], [10.014613121891882, 53.44219967716475], [10.04184908989211, 53.45163343231346], [10.051810280932948, 53.463920605243395], [10.097994786404294, 53.43958088671023], [10.113308929266703, 53.42499921554263], [10.14573385844296, 53.415605502313426], [10.182417914775023, 53.39648627086805], [10.243359545489282, 53.399002086734825], [10.263591295730327, 53.42000387013639], [10.318190563048532, 53.43532940275315], [10.325959172918877, 53.44963835560473], [10.311293610092854, 53.452108360407095], [10.308612800897917, 53.444332090728075], [10.269430124483605, 53.46406170352805], [10.264326102826281, 53.47513964803755], [10.238367047813435, 53.48326496420132], [10.218946015679347, 53.499082565762464], [10.210600839298438, 53.5200462399261], [10.186644592423553, 53.51276776379276], [10.161700251136779, 53.5259399560724], [10.166872077757644, 53.537433621600165], [10.156057593220355, 53.53651621532151], [10.157091091531102, 53.56013871817546], [10.147441840354206, 53.56632237095754], [10.165628424695804, 53.58251189727946], [10.195839929508626, 53.584629057304845], [10.18895244962663, 53.613014210588645], [10.221761693868878, 53.63372418029856], [10.189635244455054, 53.638156878755005], [10.195816499043096, 53.65469362986935], [10.14287137163692, 53.676073044697304], [10.160260228421182, 53.70065210871726], [10.173853814237548, 53.712795261568395], [10.181641089087206, 53.70922471513202], [10.188917114878278, 53.730453517370385], [10.171425785268404, 53.73742673131937], [10.121056592225822, 53.71339419323478], [10.081842414673185, 53.7204208116223], [10.069627731900331, 53.70624544930695], [10.07909776650177, 53.70415494589329], [10.06926537013836, 53.679451010400676], [10.03806732633204, 53.677210517344626], [10.031377167432154, 53.65890065289781], [9.960289485064855, 53.638067252188584], [9.91335080655576, 53.63664906801783], [9.88391923366366, 53.611581125086744], [9.883333350086795, 53.57916666900538], [9.90416667088704, 53.57916666795504], [9.910757814320846, 53.550353288872806], [9.872575587670159, 53.54964669786076], [9.92244047569375, 53.543609619264465], [9.862420009253603, 53.54160861308137], [9.858065812909683, 53.534281931550595], [9.887386073847496, 53.52384120763339], [9.893034570637267, 53.51188233986834], [9.924999941896363, 53.51666664265742], [9.925668033642873, 53.50081242893609], [9.94228411112211, 53.487969122270954], [9.94100409928022, 53.45933514832692], [9.916312211516118, 53.44256217004043]]]}, "properties": {"bwd_score": 0.305725957093762, "bws_score": 0.247050124778648, "cfr_score": 0, "drr_score": 2.99572170453429, "gtd_score": 1.1537460088729858, "pfaf_id": 232810, "rfr_score": 1.11843021502, "w_awr_def_tot_cat": 0, "w_awr_def_tot_score": 0.751982286002921, "site_id": "S4", "name": "Hamburg plant (DE)", "lat": 53.5511, "lng": 9.9937}}, {"type": "Feature", "geometry": {"type": "GeometryCollection", "geometries": [{"type": "LineString", "coordinates": [[46.0916666312795, 24.795833301758343], [46.08333336276021, 24.79166666949519]]}, {"type": "Polygon", "coordinates": [[[46.30195618941128, 24.971400655582393], [46.28090886358846, 24.982979988698343], [46.258686689631354, 24.97742443608326], [46.25416663748743, 24.966666649396814], [46.18656279863106, 24.971400611945292], [46.16054385179004, 24.950567287069074], [46.142881607101664, 24.949432741719367], [46.12425332424212, 24.967233931582754], [46.08971049180964, 24.96609936512548], [46.038714921825004, 24.957766051866503], [46.02674224253219, 24.962146704547557], [45.99645689074117, 24.949090928462034], [45.99583329695779, 24.937499973767093], [46.044945923041205, 24.92845828408744], [46.05918427215236, 24.892517398896423], [46.06723398948814, 24.890451752661665], [46.06249998372718, 24.866666695643126], [46.07325779858837, 24.867019963316093], [46.0992533253246, 24.888067276506863], [46.12008669843008, 24.888067305907853], [46.12982789108207, 24.86756625480438], [46.1076721486428, 24.813399631684444], [46.0916666312795, 24.795833301758343], [46.11078371973965, 24.791312990713], [46.12464664607307, 24.777424450705748], [46.1350755725554, 24.746186666525617], [46.14251758576328, 24.73835072987892], [46.154166672885076, 24.72916663719197], [46.181591146730945, 24.728813357776698], [46.189242235359345, 24.721186641590446], [46.21909108494338, 24.716313301626023], [46.26164906791032, 24.678315932949175], [46.267517580700336, 24.663350741314584], [46.2826721052655, 24.657433703960386], [46.283333309851606, 24.64999998465652], [46.30833331692761, 24.649999984537846], [46.336932748352766, 24.614710530928146], [46.33820854868244, 24.605054093820897], [46.35473393639325, 24.598785074477764], [46.35505407879354, 24.575708366845966], [46.36574721273075, 24.574295719483924], [46.40612284752615, 24.533900623062358], [46.44255401965935, 24.517375026842302], [46.48528953108766, 24.492233983669923], [46.5605438071686, 24.48276604464498], [46.58664907349231, 24.465815883823108], [46.602453808973515, 24.457980031339066], [46.62325775889653, 24.4586866167563], [46.631617770780046, 24.467019997933384], [46.69583335462524, 24.445833313411388], [46.75216017063844, 24.445215876087364], [46.79799346050242, 24.411882555358797], [46.82009816665871, 24.40336406696836], [46.8267422021503, 24.3920199820827], [46.84104902187488, 24.39783969483324], [46.84237233782833, 24.41585963708049], [46.8547841436406, 24.4176662809507], [46.85168865143458, 24.433606620938747], [46.87026608008021, 24.447789541377112], [46.87556727791572, 24.47991329663545], [46.86595831882592, 24.50327925950031], [46.855066253859384, 24.51600548746854], [46.87454225096771, 24.52292072316382], [46.867774828369306, 24.537043929193196], [46.90000000865563, 24.558333365270045], [46.89940153798536, 24.57825118020387], [46.86306730472167, 24.618622848486066], [46.861764893642935, 24.64086407927067], [46.82826706036341, 24.661838810149725], [46.78846773590289, 24.662896080930025], [46.7829374764168, 24.674032230223176], [46.76751756610618, 24.680017412294113], [46.761509545483094, 24.69104750727756], [46.749999963528694, 24.691666665831697], [46.750353362416185, 24.72254641122622], [46.709036223482855, 24.759262420441434], [46.70762483967568, 24.769945939592994], [46.694924101913585, 24.78270976442309], [46.683333333490374, 24.783333318167216], [46.67414906663391, 24.8033158886959], [46.66249998218604, 24.808333322510197], [46.646400636764774, 24.839456184876433], [46.6369326982729, 24.875937229706576], [46.645266062379314, 24.8852895304816], [46.619924068169354, 24.9160430784377], [46.607766068722086, 24.914456194782787], [46.585543808156295, 24.888067269380826], [46.56862286255355, 24.886932742910467], [46.55927055805268, 24.87859936118065], [46.53843720914025, 24.89223396444232], [46.50416664897259, 24.88333331650514], [46.50833335429562, 24.916666664548345], [46.463467761986294, 24.929562751996606], [46.453193684965946, 24.945178549745723], [46.43008645364425, 24.954749569470962], [46.41875002423638, 24.966198086676965], [46.39673899590533, 24.961862173541196], [46.388350895320755, 24.953315915894773], [46.35195618647329, 24.963067317777693], [46.34387712399897, 24.97026603568077], [46.30195618941128, 24.971400655582393]]]}]}, "properties": {"bwd_score": 5, "bws_score": 5, "cfr_score": 0, "drr_score": null, "gtd_score": 1.5219199657440186, "pfaf_id": 297818, "rfr_score": 0.81457403168, "w_awr_def_tot_cat": 3, "w_awr_def_tot_score": 3.8340786896795, "site_id": "S5", "name": "Riyadh plant (SA)", "lat": 24.7136, "lng": 46.6753}}]}